STARLINK-1470           
1 45772U 20038AU  26068.60892913  .00054678  00000+0  19687-2 0  9990
2 45772  53.0480 174.6971 0002444  12.8687 347.2373 15.28074860317065
STARLINK-32385          
1 61068U 24164U   26068.34531276  .00000320  00000+0  22949-4 0  9995
2 61068  53.1611  92.8000 0001244  67.0738 293.0394 15.30193201 83423
